ORBCOMM-X               
1 21576U 91050C   25102.16796910  .00000809  00000+0  25344-3 0  9992
2 21576  98.3480 170.0983 0004234  43.3509 316.8014 14.43195637772596
ORBCOMM FM01            
1 23545U 95017A   25102.39547977  .00012969  00000+0  13786-2 0  9995
2 23545  69.9636 238.0864 0001127 349.9555  10.1577 14.89121326602716
ORBCOMM FM02            
1 23546U 95017B   25102.17053440  .00014828  00000+0  15515-2 0  9997
2 23546  69.9644 258.2236 0001846  36.5047 323.6233 14.89715979602327
ORBCOMM FM08            
1 25112U 97084A   25102.60182181  .00003101  00000+0  91041-3 0  9998
2 25112  45.0139 322.6494 0005879 277.3423  82.6760 14.45544981431880
ORBCOMM FM10            
1 25113U 97084B   25102.91896749  .00003594  00000+0  10534-2 0  9998
2 25113  45.0154 323.3949 0004223 241.8071 118.2354 14.45337466432084
ORBCOMM FM11            
1 25114U 97084C   25102.63576514  .00003211  00000+0  95039-3 0  9993
2 25114  45.0139 325.2681 0005017 242.8175 117.2165 14.45084503431999
ORBCOMM FM12            
1 25115U 97084D   25102.32269377  .00003187  00000+0  94307-3 0  9995
2 25115  45.0148 326.5266 0003995 238.7811 121.2649 14.45108109431741
ORBCOMM FM09            
1 25116U 97084E   25102.90256098  .00003098  00000+0  92013-3 0  9999
2 25116  45.0153 324.6150 0005388 228.7465 131.2922 14.44994640432064
